id,miles_to_zip_center,address,zip,lat,lng,latlong_source,zip_center_lat,zip_center_long,geocoded_outside_co
0016100001HA3uQAAT,14.9,"421 Zang street_BR_ENCODED_Lakewood, CO 80228",80228,39.72197,-105.145767,ladders_open_data_20220610,39.76,-104.87,False
0016100001HA4QfAAL,14.3,"12055 West 2nd Place_BR_ENCODED_Lakewood, CO 80228",80228,39.718678,-105.134613,ladders_open_data_20220610,39.76,-104.87,False
0016100001HA3n8AAD,13.7,"11500 Security Avenue_BR_ENCODED_Lakewood, CO 80215",80215,39.737282,-105.126984,ladders_open_data_20220610,39.76,-104.87,False
0016100001HA4QCAA1,13.4,"3595 South Teller St._BR_ENCODED_Lakewood, CO 80235",80235,39.648022,-105.07682,ladders_open_data_20220610,39.76,-104.87,False
0016100001HA43HAAT,13.3,"3225 S Wadsworth Blvd #T, Unit T_BR_ENCODED_Lakewood, CO 80227",80227,39.657791,-105.081596,ladders_open_data_20220610,39.76,-104.87,False
0016100001HA3o2AAD,13.1,"12213 Pecos St. Suite 500_BR_ENCODED_Westminster, CO 80234",80234,39.918221,-105.004738,ladders_open_data_20220610,39.76,-104.87,False
0016100001ZdUD9AAN,13.0,"2300 S Balsam Ln_BR_ENCODED_Lakewood, CO 80227",80227,39.674751,-105.087456,ladders_open_data_20220610,39.76,-104.87,False
0016100001HA3jgAAD,12.8,"2525 S Wadsworth Blvd Suite 106_BR_ENCODED_Lakewood, CO 80227",80227,39.672241,-105.08149,ladders_open_data_20220610,39.76,-104.87,False
0016100001HA4QgAAL,12.5,"9485 W Colfax Avenue_BR_ENCODED_Lakewood, CO 80215",80215,39.740318,-105.103516,ladders_open_data_20220610,39.76,-104.87,False
0016100001HA3e8AAD,12.3,"3702 3712 W Princeton Circle_BR_ENCODED_Denver, CO 80236",80236,39.639316,-105.038899,ladders_open_data_20220610,39.76,-104.87,False
0016100001HA3eAAAT,12.3,"3630 W Princeton Circle_BR_ENCODED_Denver, CO 80236",80236,39.63987,-105.039619,ladders_open_data_20220610,39.76,-104.87,False
0016100001HA3nIAAT,12.2,"3680-90 W Princeton Circle_BR_ENCODED_Denver, CO 80236",80236,39.639553,-105.038818,ladders_open_data_20220610,39.76,-104.87,False
0016100001HA3wIAAT,12.1,"8830 W Colfax Avenue_BR_ENCODED_Lakewood, CO 80215",80215,39.740108,-105.096016,ladders_open_data_20220610,39.76,-104.87,False
0016100001HA41LAAT,12.0,"8790 W Colfax Avenue #102_BR_ENCODED_Lakewood, CO 80215",80215,39.740112,-105.095261,ladders_open_data_20220610,39.76,-104.87,False
0016100001HA3t0AAD,11.9,"3520 W. Oxford Avenue_BR_ENCODED_Denver, CO 80236",80236,39.642212,-105.033424,ladders_open_data_20220610,39.76,-104.87,False
0016100001HA3llAAD,11.7,"11150 N. Huron St., #207_BR_ENCODED_Northglenn, CO 80234",80234,39.898621,-104.996567,ladders_open_data_20220610,39.76,-104.87,False
0016100001HA4CUAA1,11.5,"11285 Highline Dr._BR_ENCODED_Northglenn, CO 80233",80233,39.901402,-104.984955,ladders_open_data_20220610,39.76,-104.87,False
0016100001HA3nVAAT,11.2,"10699 Melody Drive Suite 2_BR_ENCODED_Northglenn, CO 80243",80243,39.890678,-104.993317,ladders_open_data_20220610,39.76,-104.87,False
0016100001HA4QDAA1,10.7,"5801 West Alameda Avenue_BR_ENCODED_Lakewood, CO 80226",80226,39.711993,-105.060678,ladders_open_data_20220610,39.76,-104.87,False
0016100001HA3nAAAT,10.5,"1651 Kendall St_BR_ENCODED_Lakewood, CO 80214",80214,39.743156,-105.06617,ladders_open_data_20220610,39.76,-104.87,False
0016100001HA3t3AAD,10.4,"8835 American Way_BR_ENCODED_Englewood, CO 80112",80112,39.558376,-104.826736,ladders_open_data_20220610,39.64,-104.99,False
0016100001HA3o1AAD,10.3,"10327 Washington St._BR_ENCODED_Thornton, CO 80229",80229,39.883793,-104.977867,ladders_open_data_20220610,39.76,-104.87,False
0016100001HA3aQAAT,9.9,"4200 Morrison Rd. Unit 8_BR_ENCODED_Denver, Colorado 80219",80219,39.704644,-105.042037,ladders_open_data_20220610,39.76,-104.87,False
0016100001HA3rXAAT,9.8,"8380 Zuni St. Unit 200_BR_ENCODED_Denver, CO 80221",80221,39.848657,-105.01498,ladders_open_data_20220610,39.76,-104.87,False
0016100001HA40fAAD,9.8,"14485 E Fremont Ave_BR_ENCODED_Englewood, CO 80112",80112,39.585911,-104.820412,ladders_open_data_20220610,39.64,-104.99,False
0016100001HA4CSAA1,9.6,"8989 Huron St._BR_ENCODED_Thornton, CO 80260",80260,39.858772,-104.996674,ladders_open_data_20220610,39.76,-104.87,False
0016100001HA3jjAAD,9.6,"1550 S Federal Blvd., Unit D_BR_ENCODED_Denver, Colorado 80219",80219,39.689415,-105.025002,ladders_open_data_20220610,39.76,-104.87,False
0016100001HA4BoAAL,9.5,"8931 Huron St._BR_ENCODED_Thornton, CO 80260",80260,39.858006,-104.996681,ladders_open_data_20220610,39.76,-104.87,False
0016100001HA3liAAD,9.1,"9051 Washington St_BR_ENCODED_Thornton, CO 80229",80229,39.862057,-104.977997,ladders_open_data_20220610,39.76,-104.87,False
0016100001HA3r5AAD,9.1,"325 King St_BR_ENCODED_Denver, Colorado 80219",80219,39.721779,-105.033775,ladders_open_data_20220610,39.76,-104.87,False
0016100001HA3ogAAD,9.0,"8461 Delaware Street_BR_ENCODED_Thornton, CO 80221",80221,39.850174,-104.991951,ladders_open_data_20220610,39.76,-104.87,False
0016100001HA3w6AAD,9.0,"301 Knox Court_BR_ENCODED_Denver, Colorado 80219",80219,39.721432,-105.032562,ladders_open_data_20220610,39.76,-104.87,False
0016100001HA3loAAD,8.7,"2425 South Broadway_BR_ENCODED_Denver, CO 80210",80210,39.672543,-104.987724,ladders_open_data_20220610,39.76,-104.87,False
0016100001HA3qVAAT,8.5,"3131 W. 14th Ave_BR_ENCODED_Denver, Colorado 80204",80204,39.738518,-105.027092,ladders_open_data_20220610,39.76,-104.87,False
0016100001HA3r7AAD,8.4,"2880  W. Holden_BR_ENCODED_Denver, CO 80204",80204,39.735619,-105.024185,ladders_open_data_20220610,39.76,-104.87,False
0016100001HA3tYAAT,8.3,"1827 Federal Blvd._BR_ENCODED_Denver, CO 80204",80204,39.745476,-105.025299,ladders_open_data_20220610,39.76,-104.87,False
0016100001HA42qAAD,8.1,"11275 E Mississippi Ave Unit 1E8_BR_ENCODED_Aurora, CO 80111",80111,39.696697,-104.85701,ladders_open_data_20220610,39.64,-104.99,False
0016100001HA439AAD,7.8,"9350 Heritage Hills Circle_BR_ENCODED_Lone Tree, CO 80124",80124,39.537483,-104.880707,ladders_open_data_20220610,39.59,-105.01,False
0016100001HA3jTAAT,7.8,"2450 South Vine Street_BR_ENCODED_Denver, CO 80208",80208,39.67165,-104.962837,ladders_open_data_20220610,39.76,-104.87,False
0016100001HA3uHAAT,7.6,"1801 West 13th Avenue_BR_ENCODED_Denver, CO 80204",80204,39.736969,-105.010689,ladders_open_data_20220610,39.76,-104.87,False
0016100001HA3lPAAT,7.5,"155 Inverness Drive West, Suite 200_BR_ENCODED_Englewood, CO 80112",80112,39.579674,-104.873718,ladders_open_data_20220610,39.64,-104.99,False
0016100001HA3goAAD,7.4,"8751 East Hampden Avenue. Unit B2_BR_ENCODED_Denver, CO 80231",80231,39.653145,-104.886589,ladders_open_data_20220610,39.76,-104.87,False
0016100001HA4QqAAL,7.4,"850 East 73rd Avenue_BR_ENCODED_Denver, Colorado 80229",80229,39.829018,-104.976448,ladders_open_data_20220610,39.76,-104.87,False
0016100001HA3jSAAT,7.3,"3201 South Tamarac Drive_BR_ENCODED_Denver, CO 80231",80231,39.657417,-104.900108,ladders_open_data_20220610,39.76,-104.87,False
0016100001HA4QeAAL,7.1,"185 Beaver Brook Canyon Road_BR_ENCODED_Evergreen, CO 80439",80439,39.718517,-105.40789,ladders_open_data_20220610,39.63,-105.34,False
0016100001HA4QmAAL,7.1,"4141 E Dickenson Place_BR_ENCODED_Denver, CO 80222",80222,39.671936,-104.939545,ladders_open_data_20220610,39.76,-104.87,False
0016100001MDp4fAAD,7.1,Please contact this provider directly for location,80452,39.677792,-105.616887,ladders_open_data_20220610,39.74,-105.51,False
0016100001PICNnAAP,7.1,Please contact this provider directly for location,80128,39.587696,-104.876869,ladders_open_data_20220610,39.59,-105.01,False
0016100001HA3n2AAD,7.0,"4300 Kalamath Street_BR_ENCODED_Denver, CO 80211",80211,39.775539,-105.000496,ladders_open_data_20220610,39.76,-104.87,False
0016100001HA420AAD,7.0,"107 Acoma Street_BR_ENCODED_Denver, CO 80223",80223,39.71851,-104.989273,ladders_open_data_20220610,39.76,-104.87,False
0016100001HA41wAAD,7.0,"121 Acoma St_BR_ENCODED_Denver, CO 80223",80223,39.718628,-104.989273,ladders_open_data_20220610,39.76,-104.87,False
0016100001HA41xAAD,7.0,"121 West 1st Ave_BR_ENCODED_Denver, CO 80223",80223,39.718437,-104.989662,ladders_open_data_20220610,39.76,-104.87,False
0016100001HA3r2AAD,6.9,"2755 South Locust #132_BR_ENCODED_Denver, CO 80222",80222,39.666412,-104.915672,ladders_open_data_20220610,39.76,-104.87,False
0016100001HA3j1AAD,6.8,"1730 Blake Street, Suite 310_BR_ENCODED_Denver, CO 80202",80202,39.751858,-104.997368,ladders_open_data_20220610,39.76,-104.87,False
0016100001HA3pqAAD,6.7,"1155 Cherokee St_BR_ENCODED_Denver, CO 80204",80204,39.734779,-104.991737,ladders_open_data_20220610,39.76,-104.87,False
0016100001HA3rzAAD,6.7,"9600 E. Arapahoe Rd. # 220_BR_ENCODED_Greenwood Village, CO 80112",80112,39.594891,-104.878166,ladders_open_data_20220610,39.64,-104.99,False
0016100001HA3lEAAT,6.7,"7108 S Alton Way, Bldg A_BR_ENCODED_Centennial, CO 80112",80112,39.588013,-104.883629,ladders_open_data_20220610,39.64,-104.99,False
0016100001HA3hyAAD,6.6,"420 E. 58th Ave, Suite 128a_BR_ENCODED_Denver, CO 80216",80216,39.80183,-104.981323,ladders_open_data_20220610,39.76,-104.87,False
0016100001HA3fFAAT,6.6,"4242 Delaware St._BR_ENCODED_Denver, CO 80203",80203,39.774891,-104.992287,ladders_open_data_20220610,39.76,-104.87,False
0016100001HA3rUAAT,6.5,"4155 Jewell Ave._BR_ENCODED_Denver, CO 80222",80222,39.682144,-104.937111,ladders_open_data_20220610,39.76,-104.87,False
0016100001HA3ixAAD,6.4,"0020 Eagle County Dr., Spruce Rm_BR_ENCODED_El Jebel, CO 81623",81623,39.392705,-107.090736,ladders_open_data_20220610,39.39,-107.21,False
0016100001HA3nKAAT,6.4,"2162 Lawrence St_BR_ENCODED_Denver, CO 80205",80205,39.753845,-104.989601,ladders_open_data_20220610,39.76,-104.87,False
0016100001HA3i1AAD,6.4,Please contact this provider directly for location,80203,39.734276,-104.986191,ladders_open_data_20220610,39.76,-104.87,False
0016100001HA42CAAT,6.3,"2100 Broadway_BR_ENCODED_Denver, CO 80205",80205,39.750702,-104.98732,ladders_open_data_20220610,39.76,-104.87,False
0016100001HA42BAAT,6.3,"2111 Champa Street_BR_ENCODED_Denver, CO 80205",80205,39.751476,-104.987617,ladders_open_data_20220610,39.76,-104.87,False
0016100001HA3vfAAD,6.3,"1450 E 62nd Ave_BR_ENCODED_Denver, CO 80216",80216,39.809086,-104.969795,ladders_open_data_20220610,39.76,-104.87,False
0016100001HA42DAAT,6.2,"2130 Stout Street_BR_ENCODED_Denver, CO 80205",80205,39.750977,-104.986336,ladders_open_data_20220610,39.76,-104.87,False
0016100001HA3qMAAT,6.2,"8031 I-76 Service Road_BR_ENCODED_Henderson, CO 80640",80640,39.842148,-104.928833,ladders_open_data_20220610,39.92,-104.87,False
0016100001HA3w2AAD,6.2,"3801 E Florida Ave Suite 650_BR_ENCODED_Denver, CO 80201",80201,39.689373,-104.942497,ladders_open_data_20220610,39.76,-104.87,False
0016100001HA3kvAAD,6.2,"3801 E. Florida Ave Ste 107_BR_ENCODED_Denver, CO 80210",80210,39.689373,-104.942497,ladders_open_data_20220610,39.76,-104.87,False
0016100001HA3ypAAD,6.1,"7200 E. Dry Creek Rd #C-203_BR_ENCODED_Centennial, CO 80112",80112,39.580437,-104.904922,ladders_open_data_20220610,39.64,-104.99,False
0016100001HA3eYAAT,6.0,"709 East 12th Avenue_BR_ENCODED_Denver, CO 80203-2610",80203,39.735195,-104.978371,ladders_open_data_20220610,39.76,-104.87,False
0016100001HA3o0AAD,6.0,"4901 Krameria St_BR_ENCODED_Commerce City, CO 80022",80022,39.785599,-104.916824,ladders_open_data_20220610,39.86,-104.86,False
0016100001HA3y7AAD,6.0,"220 1st Street_BR_ENCODED_Ordway, CO 81063",81063,38.193703,-103.856094,ladders_open_data_20220610,38.22,-103.75,False
0016100001HA3nTAAT,5.9,"7853 E. Arapahoe Ct., #3550_BR_ENCODED_Centennial, Colorado 80112",80112,39.594021,-104.897453,ladders_open_data_20220610,39.64,-104.99,False
0016100001HA3xcAAD,5.9,"7353 Sisters Grove_BR_ENCODED_Colorado Springs, CO 80923",80923,38.937225,-104.713837,ladders_open_data_20220610,38.86,-104.76,False
0016100001HA3m4AAD,5.7,"2616 W. Colorado Ave., suite 7_BR_ENCODED_Colorado Springs, CO 80904",80904,38.848362,-104.864441,ladders_open_data_20220610,38.86,-104.76,False
0016100001HA3yhAAD,5.7,"1410 Vance Street Suite 204_BR_ENCODED_Lakewood, CO 80003",80003,39.738594,-105.078964,ladders_open_data_20220610,39.82,-105.1,False
0016100001HA4D7AAL,5.7,"7201 E 49th Avenue, Room 2_BR_ENCODED_Commerce City, CO 80022",80022,39.785294,-104.905067,ladders_open_data_20220610,39.86,-104.86,False
0016100001HA3wBAAT,5.7,"7251 East 49th Avenue, Room 1_BR_ENCODED_Commerce City, CO 80022",80022,39.785297,-104.9049,ladders_open_data_20220610,39.86,-104.86,False
0016100001HA3zIAAT,5.5,"4545 E. 60th Ave. #150_BR_ENCODED_Commerce City, CO 80022",80022,39.805561,-104.934433,ladders_open_data_20220610,39.86,-104.86,False
0016100001HA3aRAAT,5.5,"2515 California St._BR_ENCODED_Denver, CO 80205",80205,39.757893,-104.973984,ladders_open_data_20220610,39.76,-104.87,False
0016100001HA3uIAAT,5.5,"1490 N.  Lafayette St., Suite 208_BR_ENCODED_Denver, CO 80218",80218,39.739845,-104.970627,ladders_open_data_20220610,39.76,-104.87,False
0016100001Qk1sEAAR,5.4,"4411 Kentucky Ave,_BR_ENCODED_Glendale, CO 80246",80246,39.700291,-104.93631,ladders_open_data_20220610,39.76,-104.87,False
0016100001HA3eZAAT,5.2,"1537 Alton St_BR_ENCODED_Aurora, CO 80010",80010,39.741138,-104.882347,ladders_open_data_20220610,39.69,-104.81,False
0016100001HA3iyAAD,5.2,"1221 Lake Plaza Dr., Suite A_BR_ENCODED_Colorado Springs, CO 80906",80906,38.794704,-104.806595,ladders_open_data_20220610,38.86,-104.76,False
0016100001HA4BVAA1,5.2,"3315 Gilpin St_BR_ENCODED_Denver, CO 80205",80205,39.763489,-104.967262,ladders_open_data_20220610,39.76,-104.87,False
0016100001Vp1F7AAJ,5.2,"2925 Professional Place, Suite 101_BR_ENCODED_Colorado Springs, CO 80904",80904,38.873974,-104.85482,ladders_open_data_20220610,38.86,-104.76,False
0016100001HA3p4AAD,5.1,"1602 S. Parker Rd., Suire 214_BR_ENCODED_Denver, Colorado 80231",80231,39.68757,-104.886126,ladders_open_data_20220610,39.76,-104.87,False
0016100001HA4RvAAL,5.1,"1455 Beeler Street_BR_ENCODED_Aurora, CO 80010",80010,39.739597,-104.88121,ladders_open_data_20220610,39.69,-104.81,False
0016100001HA3ucAAD,5.0,"1620 Gaylord St_BR_ENCODED_Denver, CO 80206",80206,39.741982,-104.960922,ladders_open_data_20220610,39.76,-104.87,False
0016100001HA3w9AAD,5.0,"1648 Gaylord Street, Suite 150_BR_ENCODED_Denver, CO 80206",80206,39.742397,-104.960922,ladders_open_data_20220610,39.76,-104.87,False
0016100001HA41GAAT,5.0,"238 East Colorado Avenue, Suite 9_BR_ENCODED_Telluride, CO 81435",81435,37.936684,-107.809242,ladders_open_data_20220610,37.94,-107.9,False
0016100001HA3i3AAD,5.0,Please contact this provider directly for location,80206,39.736679,-104.959846,ladders_open_data_20220610,39.76,-104.87,False
0016100001HA3mnAAD,4.9,"1880 Dublin Blvd, Suite B_BR_ENCODED_Colorado Springs, CO 80918",80918,38.926579,-104.792328,ladders_open_data_20220610,38.86,-104.76,False
0016100001PImNNAA1,4.9,"1236 Ridge Road_BR_ENCODED_Ward, Colorado 80481",80481,40.108978,-105.432503,ladders_open_data_20220610,40.07,-105.51,False
0016100001HA4QrAAL,4.9,"1600 York St_BR_ENCODED_Denver, CO 80206",80206,39.741692,-104.959694,ladders_open_data_20220610,39.76,-104.87,False
0016100001YRe7RAAT,4.8,"6440 Brook Park Drive_BR_ENCODED_Colorado Springs, Colorado 80918",80918,38.925312,-104.790833,ladders_open_data_20220610,38.86,-104.76,False
0016100001HA41vAAD,4.8,"1368 Elizabeth St_BR_ENCODED_Denver, CO 80206",80206,39.73785,-104.956215,ladders_open_data_20220610,39.76,-104.87,False
0016100001HA3o9AAD,4.8,"1400 Dayton Street_BR_ENCODED_Aurora, CO 80010",80010,39.738354,-104.87516,ladders_open_data_20220610,39.69,-104.81,False
0016100001HA4CWAA1,4.7,"4371 E. 72nd Ave._BR_ENCODED_Commerce City, CO 80022",80022,39.827301,-104.936714,ladders_open_data_20220610,39.86,-104.86,False
0016100001HA3iaAAD,4.7,"7623 South Estes Court_BR_ENCODED_Littleton, CO 80128",80128,39.57848,-105.097122,ladders_open_data_20220610,39.59,-105.01,False
0016100001HA41tAAD,4.4,Please contact this provider directly for location,80021,39.880833,-105.090233,ladders_open_data_20220610,39.94,-105.06,False
0016100001NUsf9AAD,4.3,"2206 Victor St. 3rd Floor_BR_ENCODED_Aurora, CO 80045",80045,39.74939,-104.832825,ladders_open_data_20220610,39.69,-104.81,False
0016100001HA43AAAT,4.2,"1693 N. Quentin St_BR_ENCODED_Aurora, CO 80045",80045,39.743984,-104.84478,ladders_open_data_20220610,39.69,-104.81,False
0016100001HA3ySAAT,4.2,"332 W Bijou St Suite 103_BR_ENCODED_Colorado Springs, CO 80905",80905,38.837067,-104.832237,ladders_open_data_20220610,38.86,-104.76,False
0016100001HA43VAAT,4.2,"2178 Victor St._BR_ENCODED_Aurora, CO 80040",80040,39.748878,-104.832825,ladders_open_data_20220610,39.69,-104.81,False
0016100001HA3r3AAD,4.0,"15555 E. 53rd Ave._BR_ENCODED_Denver, CO 80239",80239,39.790234,-104.806702,ladders_open_data_20220610,39.76,-104.87,False
0016100001HA3iWAAT,4.0,"7227 South Yarrow Court_BR_ENCODED_Littleton, CO 80128",80128,39.587223,-105.085373,ladders_open_data_20220610,39.59,-105.01,False
0016100001HA3uSAAT,4.0,"114 Bristlecone Drive_BR_ENCODED_Fort Collins, CO 80524",80524,40.607037,-105.074883,ladders_open_data_20220610,40.55,-105.06,False
0016100001HA3fJAAT,3.9,Please contact this provider directly for location,80220,39.740257,-104.939026,ladders_open_data_20220610,39.76,-104.87,False
0016100001HA3uiAAD,3.9,"1700 N Wheeling St._BR_ENCODED_Aurora, CO 80045",80045,39.743622,-104.830933,ladders_open_data_20220610,39.69,-104.81,False
0016100001HA3yiAAD,3.8,"3489 W. 72nd Ave, Ste 105_BR_ENCODED_Westminster, CO 80030",80030,39.827351,-105.031677,ladders_open_data_20220610,39.88,-105.05,False
0016100001HA3kdAAD,3.7,"6332 E 72nd Avenue_BR_ENCODED_Commerce City, CO 80022",80022,39.827122,-104.914551,ladders_open_data_20220610,39.86,-104.86,False
0016100001HA3ioAAD,3.7,"322 Walnut Street_BR_ENCODED_La Jara, CO 81151",81151,37.274136,-105.959297,ladders_open_data_20220610,37.25,-105.9,False
0016100001HA3iZAAT,3.7,"2700 East Ken Pratt Blvd._BR_ENCODED_Longmont, CO 80504",80504,40.161401,-105.04139,ladders_open_data_20220610,40.17,-105.11,False
0016100001HA3s1AAD,3.7,"242 Conifer Street_BR_ENCODED_Fort Collins, CO 80524",80524,40.602867,-105.07312,ladders_open_data_20220610,40.55,-105.06,False
0014M00001gjujKQAQ,3.6,"4813 E Colfax Ave._BR_ENCODED_Denver, Colorado 80220",80220,39.740234,-104.931694,ladders_open_data_20220610,39.76,-104.87,False
0016100001SkQbrAAF,3.5,"6436 S. Quebec Street Building 6_BR_ENCODED_Centennial, CO 80111",80111,39.59523,-104.960846,ladders_open_data_20220610,39.64,-104.99,False
0016100001HA4R2AAL,3.4,"5360 North Academy Drive_BR_ENCODED_Colorado Springs, Colorado 80918",80918,38.906677,-104.781303,ladders_open_data_20220610,38.86,-104.76,False
0016100001HA4CTAA1,3.4,"3031 West 76th Ave._BR_ENCODED_Westminster, CO 80030",80030,39.834553,-105.027061,ladders_open_data_20220610,39.88,-105.05,False
0016100001HA3qUAAT,3.3,"5160 N Union Blvd_BR_ENCODED_Colorado Springs, CO 80918",80918,38.905693,-104.775078,ladders_open_data_20220610,38.86,-104.76,False
0016100001HA4A9AAL,3.3,"1390 Chambers Rd._BR_ENCODED_Aurora, CO 80011",80011,39.737938,-104.809868,ladders_open_data_20220610,39.69,-104.81,False
0016100001J24LWAAZ,3.2,"10782 East Alameda Avenue_BR_ENCODED_Aurora, CO 80012",80012,39.710941,-104.862717,ladders_open_data_20220610,39.69,-104.81,False
0016100001HA4AYAA1,3.2,"11059 E. Bethany Drive, Suite 200_BR_ENCODED_Aurora, CO 80014",80014,39.663292,-104.860214,ladders_open_data_20220610,39.69,-104.81,False
0016100001HA3lZAAT,3.2,"2429 S. Prairie Ave._BR_ENCODED_Pueblo, CO 81005",81005,38.227093,-104.643654,ladders_open_data_20220610,38.27,-104.62,False
0016100001HA3g8AAD,3.2,"6949 Highway 73, UNE_BR_ENCODED_Evergreen, CO 80439",80439,39.589905,-105.310173,ladders_open_data_20220610,39.63,-105.34,False
0016100001VqafDAAR,3.1,"5 South 1st Avenue_BR_ENCODED_Brighton, CO 80601",80601,39.986603,-104.82238,ladders_open_data_20220610,39.95,-104.79,False
0016100001HA3k9AAD,3.1,"Havana Parker Office Center 2600 S Parker Rd Building 5-150_BR_ENCODED_Aurora, CO 80014",80014,39.669934,-104.862745,ladders_open_data_20220610,39.69,-104.81,False
0016100001HA3nvAAD,3.1,"9769 W. 119th Drive Suite 32_BR_ENCODED_Broomfield, CO 80021",80021,39.912201,-105.1064,ladders_open_data_20220610,39.94,-105.06,False
0016100001HA3fLAAT,3.0,Please contact this provider directly for location,80631,40.449547,-104.697205,ladders_open_data_20220610,40.42,-104.74,False
0016100001HA3ngAAD,3.0,"76 S Main Street, Suite A_BR_ENCODED_Brighton, CO 80601",80601,39.985558,-104.821823,ladders_open_data_20220610,39.95,-104.79,False
0016100001HA3heAAD,3.0,"42218 Hwy 133_BR_ENCODED_Paonia, CO 81428",81428,38.89883,-107.566994,ladders_open_data_20220610,38.86,-107.59,False
0016100001HA3zJAAT,3.0,"8120 Sheridan # C-215_BR_ENCODED_Westminster, CO 80003",80003,39.843769,-105.053162,ladders_open_data_20220610,39.82,-105.1,False
0016100001HA3rWAAT,3.0,"350 Interlocken Blvd. Suite 100_BR_ENCODED_Broomfield, CO 80021",80021,39.921051,-105.110046,ladders_open_data_20220610,39.94,-105.06,False
0016100001HA42hAAD,2.9,Please contact this provider directly for location,81416,38.703026,-108.045998,ladders_open_data_20220610,38.74,-108.07,False
0016100001HA3h9AAD,2.9,"524 30 Road, Suite 5B_BR_ENCODED_Grand Junction, CO 81504",81504,39.080742,-108.496513,ladders_open_data_20220610,39.08,-108.55,False
0016100001HA42wAAD,2.8,"1101 H Street_BR_ENCODED_Greeley, CO 80631",80631,40.444195,-104.696686,ladders_open_data_20220610,40.42,-104.74,False
0016100001HA4DbAAL,2.8,"41 Montebello STE 100_BR_ENCODED_Pueblo, CO 81001",81001,38.30603,-104.596756,ladders_open_data_20220610,38.27,-104.62,False
0016100001HA4DcAAL,2.8,"41 Montebello Rd._BR_ENCODED_Pueblo, CO 81001",81001,38.30603,-104.596756,ladders_open_data_20220610,38.27,-104.62,False
0016100001HA3h7AAD,2.7,"0425 Mt Shadows Dr_BR_ENCODED_Glenwood Springs, CO 81601",81601,39.567211,-107.367111,ladders_open_data_20220610,39.54,-107.33,False
0016100001HA4BhAAL,2.7,"2551 W. 84th Ave._BR_ENCODED_Westminster, CO 80031",80031,39.849064,-105.018456,ladders_open_data_20220610,39.88,-105.05,False
0016100001HA42fAAD,2.7,"17 North Farragut Avenue_BR_ENCODED_Colorado Springs, CO 80909",80909,38.833382,-104.797653,ladders_open_data_20220610,38.86,-104.76,False
0016100001HA40eAAD,2.6,"2135 West Chenango Ave._BR_ENCODED_Littleton, CO 80120",80120,39.6278,-105.013542,ladders_open_data_20220610,39.59,-105.01,False
0016100001HA3t1AAD,2.6,"757 Maleta Lane, Unit 101_BR_ENCODED_Castle Rock, CO 80108",80108,39.407425,-104.85463,ladders_open_data_20220610,39.37,-104.85,False
0016100001HA3gjAAD,2.6,"6500 Stapleton Drive South - Unit D3_BR_ENCODED_Denver, CO 80216",80216,39.77795,-104.912018,ladders_open_data_20220610,39.76,-104.87,False
0016100001HA3l5AAD,2.6,"2200 O Street_BR_ENCODED_Greeley, CO 80631",80631,40.452,-104.714745,ladders_open_data_20220610,40.42,-104.74,False
0016100001UMYoJAAX,2.6,"230 Norton Dr._BR_ENCODED_Black Hawk, colorado 80422",80422,39.837543,-105.480042,ladders_open_data_20220610,39.8,-105.49,False
0016100001HA41KAAT,2.5,"5005 W 81st Pl._BR_ENCODED_Westminster, CO 80030",80030,39.844093,-105.051453,ladders_open_data_20220610,39.88,-105.05,False
0014M00001gkCpmQAE,2.5,"155 Printers Parkway_BR_ENCODED_Colorado Springs, Colorado 80910",80910,38.830231,-104.787422,ladders_open_data_20220610,38.86,-104.76,False
0016100001HA3lXAAT,2.5,"3239 Independence Road_BR_ENCODED_Canon City, Colorado 81212",81212,38.44434,-105.183533,ladders_open_data_20220610,38.44,-105.23,False
0016100001HA3i0AAD,2.5,"9100 E Lowry Blvd_BR_ENCODED_Denver, Colorado 80230",80230,39.725395,-104.880066,ladders_open_data_20220610,39.76,-104.87,False
0016100001HA3zhAAD,2.4,"1826 E. Platte Ave. Suite 102_BR_ENCODED_Colorado Springs, CO 80909",80909,38.837303,-104.794273,ladders_open_data_20220610,38.86,-104.76,False
0016100001HA4CVAA1,2.4,"1850 E. Egbert St._BR_ENCODED_Brighton, CO 80601",80601,39.98362,-104.800034,ladders_open_data_20220610,39.95,-104.79,False
0016100001HA40OAAT,2.4,"2956 North Avenue, Suite #3_BR_ENCODED_Grand Junction, CO 81503",81503,39.077415,-108.504707,ladders_open_data_20220610,39.08,-108.55,False
0016100001HA3iNAAT,2.4,"112 Iowa Ave. #4_BR_ENCODED_Colorado Springs, CO 80909",80909,38.834866,-104.790436,ladders_open_data_20220610,38.86,-104.76,False
0016100001RikznAAB,2.3,"450 40th St_BR_ENCODED_Boulder, CO 80305",80305,39.986526,-105.247246,ladders_open_data_20220610,40.02,-105.25,False
0016100001HA4A8AAL,2.3,"913 11th Avenue_BR_ENCODED_Greeley, CO 80631",80631,40.423592,-104.696297,ladders_open_data_20220610,40.42,-104.74,False
0016100001HA3lMAAT,2.3,"22422 East Main St._BR_ENCODED_Parker, Colorado 80138",80138,39.51844,-104.723061,ladders_open_data_20220610,39.5,-104.76,False
0016100001HA4BYAA1,2.2,"1615 Bonforte Blvd_BR_ENCODED_Pueblo, CO 81001",81001,38.292873,-104.591843,ladders_open_data_20220610,38.27,-104.62,False
0016100001HA3yrAAD,2.2,"10292 S Progress Way_BR_ENCODED_Parker, CO 80134",80134,39.530334,-104.769264,ladders_open_data_20220610,39.5,-104.76,False
0016100001HA4QRAA1,2.2,"31207 Keats Way, Suite 202_BR_ENCODED_Evergreen, CO 80439",80439,39.659779,-105.353561,ladders_open_data_20220610,39.63,-105.34,False
0016100001HA3i2AAD,2.2,"1735 Pontiac Street_BR_ENCODED_Denver, CO 80206",80206,39.74403,-104.905907,ladders_open_data_20220610,39.76,-104.87,False
0016100001HA4S6AAL,2.2,Please contact this provider directly for location,80524,40.579765,-105.07402,ladders_open_data_20220610,40.55,-105.06,False
0016100001HA3udAAD,2.1,"706 S. College Ave. Suite 201-202_BR_ENCODED_Fort Collins, CO 80524",80524,40.577778,-105.076904,ladders_open_data_20220610,40.55,-105.06,False
0016100001VrQ18AAF,2.1,"3460 S. Federal Blvd_BR_ENCODED_Sheridan, CO 80110",80110,39.654152,-105.025063,ladders_open_data_20220610,39.64,-104.99,False
0016100001HA3x4AAD,2.1,"1950 Red Tail Hawk Drive_BR_ENCODED_Estes Park, CO 80517",80517,40.388966,-105.489578,ladders_open_data_20220610,40.37,-105.52,False
0016100001HA3s4AAD,2.1,"2001 South Shields St. G_BR_ENCODED_Fort Collins, CO 80526",80526,40.561607,-105.096632,ladders_open_data_20220610,40.55,-105.06,False
0016100001HA3mUAAT,2.0,"10350 S. Dransfelt Rd._BR_ENCODED_Parker, CO 80134",80134,39.527794,-104.771355,ladders_open_data_20220610,39.5,-104.76,False
0016100001HA40dAAD,2.0,"1777 6 Street_BR_ENCODED_Boulder, CO 80302",80302,40.01482,-105.28743,ladders_open_data_20220610,40.02,-105.25,False
0016100001HA3hrAAD,1.9,"5500 S Sycamore_BR_ENCODED_Littleton, CO 80120",80120,39.616776,-105.014969,ladders_open_data_20220610,39.59,-105.01,False
0016100001Pj8X9AAJ,1.9,"2203 Cordillera Way_BR_ENCODED_Edwards, CO 81632",81632,39.645058,-106.634453,ladders_open_data_20220610,39.65,-106.6,False
0016100001PzaTMAAZ,1.9,"315 W South Boulder Road. Suite 109_BR_ENCODED_Louisville, CO 80027",80027,39.987076,-105.144722,ladders_open_data_20220610,39.96,-105.14,False
0016100001HA3xeAAD,1.9,"420 21st Ave, Suite 113_BR_ENCODED_Longmont, CO 80501",80501,40.195896,-105.10041,ladders_open_data_20220610,40.17,-105.11,False
0016100001HA3pkAAD,1.9,"8565 S. Poplar Way_BR_ENCODED_Littleton, CO 80130",80130,39.561043,-104.907097,ladders_open_data_20220610,39.54,-104.93,False
0016100001HA3vDAAT,1.9,"700 Centre Ave_BR_ENCODED_Fort Collins, CO 80526",80526,40.555553,-105.095055,ladders_open_data_20220610,40.55,-105.06,False
0016100001HA4S7AAL,1.9,Please contact this provider directly for location,80526,40.567238,-105.087662,ladders_open_data_20220610,40.55,-105.06,False
0016100001HA3qpAAD,1.8,"5554 South Prince St_BR_ENCODED_Littleton, CO 80120",80120,39.615997,-105.016106,ladders_open_data_20220610,39.59,-105.01,False
0016100001HA3hHAAT,1.8,"360 28 Road_BR_ENCODED_Grand Junction, CO 81501",81501,39.056763,-108.533623,ladders_open_data_20220610,39.08,-108.55,False
0016100001YNhHvAAL,1.8,"1304 Chinook Lane_BR_ENCODED_Pueblo, CO 81001",81001,38.290699,-104.60038,ladders_open_data_20220610,38.27,-104.62,False
0016100001HA4DaAAL,1.8,"1310 Chinook Lane_BR_ENCODED_Pueblo, CO 81001",81001,38.290844,-104.600357,ladders_open_data_20220610,38.27,-104.62,False
0016100001HA1KcAAL,1.8,"1000 Alpine_BR_ENCODED_Boulder, CO 80304",80304,40.025459,-105.284103,ladders_open_data_20220610,40.02,-105.25,False
0016100001VKIGAAA5,1.8,"2833 North Broadway_BR_ENCODED_Boulder, Colorado 80304",80304,40.027332,-105.28215,ladders_open_data_20220610,40.02,-105.25,False
0016100001HA438AAD,1.8,"191 E. Orchard Rd. # A_BR_ENCODED_Littleton, CO 80121",80121,39.609669,-104.986519,ladders_open_data_20220610,39.59,-105.01,False
0016100001HA3jKAAT,1.8,"1600 Specht Point Road, Ste. 105_BR_ENCODED_Ft. Collins, CO 80525",80525,40.567272,-105.035614,ladders_open_data_20220610,40.55,-105.06,False
0016100001HA3s2AAD,1.8,"1217 Riverside Ave._BR_ENCODED_Fort Collins, CO 80524",80524,40.576302,-105.055046,ladders_open_data_20220610,40.55,-105.06,False
0016100001HA3gdAAD,1.7,"1004 McHugh St_BR_ENCODED_Fort Collins, CO 80524",80524,40.573681,-105.052628,ladders_open_data_20220610,40.55,-105.06,False
0016100001HA3yuAAD,1.7,"1500 Ford Street_BR_ENCODED_Golden, CO 80401",80401,39.754051,-105.216934,ladders_open_data_20220610,39.73,-105.21,False
0016100001HA3vgAAD,1.7,"1120 East Elizabeth St Bldg G Suite 2_BR_ENCODED_Fort Collins, CO 80524",80524,40.574268,-105.056747,ladders_open_data_20220610,40.55,-105.06,False
0016100001HA3mmAAD,1.7,"210 W. Ohio Ave_BR_ENCODED_Fountain, CO 80817",80817,38.683052,-104.702904,ladders_open_data_20220610,38.66,-104.69,False
0016100001HA4QhAAL,1.7,"7828 Vance Street_BR_ENCODED_Arvada, CO 80003",80003,39.839085,-105.079353,ladders_open_data_20220610,39.82,-105.1,False
0016100001HA4DPAA1,1.7,"407 S Lincoln_BR_ENCODED_Steamboat Springs, CO 80477",80477,40.444893,-106.815819,ladders_open_data_20220610,40.47,-106.82,False
0016100001HA3qlAAD,1.7,"18425 Pony Express Dr._BR_ENCODED_Parker, CO 80134",80134,39.521793,-104.775223,ladders_open_data_20220610,39.5,-104.76,False
0016100001HA3vEAAT,1.7,"2555 Midpoint Drive_BR_ENCODED_Fort Collins, CO 80525",80525,40.561749,-105.031113,ladders_open_data_20220610,40.55,-105.06,False
0016100001HA3vhAAD,1.7,"4102 S. Timberline Rd_BR_ENCODED_Fort Collins, CO 80525",80525,40.53104,-105.03923,ladders_open_data_20220610,40.55,-105.06,False
0016100001HA3fNAAT,1.6,"12220 Highway 61_BR_ENCODED_Sterling, CO 80751",80751,40.614536,-103.159492,ladders_open_data_20220610,40.62,-103.19,False
0016100001HA3hAAAT,1.6,"615 I-70 Business Loop_BR_ENCODED_Clifton, CO 81520",81520,39.092457,-108.452782,ladders_open_data_20220610,39.07,-108.46,False
0016100001HA4ChAAL,1.6,"515 28 3/4 Road- WSH_BR_ENCODED_Grand Junction, CO 81501",81501,39.079666,-108.519875,ladders_open_data_20220610,39.08,-108.55,False
0016100001OEOhgAAH,1.6,"5814 Hwy 348_BR_ENCODED_Olathe, Colorado 81425",81425,38.605659,-108.008408,ladders_open_data_20220610,38.6,-107.98,False
0016100001HA3rtAAD,1.6,"1414 West 28th Street_BR_ENCODED_Loveland, CO 80538",80538,40.420082,-105.097878,ladders_open_data_20220610,40.41,-105.07,False
0016100001HA4BNAA1,1.6,"515 28 3/4 Road Bldg A_BR_ENCODED_Grand Junction, CO 81501",81501,39.079666,-108.519875,ladders_open_data_20220610,39.08,-108.55,False
0016100001HA3ooAAD,1.6,"12445 E. 39th Ave. Unit 207_BR_ENCODED_Denver, CO 80239",80239,39.77113,-104.843369,ladders_open_data_20220610,39.76,-104.87,False
0016100001HA3nyAAD,1.6,"5808 South Rapp Street, Suite 11111_BR_ENCODED_Littleton, CO 80120",80120,39.61158,-105.019852,ladders_open_data_20220610,39.59,-105.01,False
0016100001HA3szAAD,1.5,"1600 West 24th Street_BR_ENCODED_Pueblo, CO 81003",81003,38.29097,-104.627625,ladders_open_data_20220610,38.27,-104.62,False
0016100001HA3kNAAT,1.5,"4195 S Broadway_BR_ENCODED_Englewood, CO 80113",80113,39.640488,-104.987915,ladders_open_data_20220610,39.64,-104.96,False
0016100001HA4SBAA1,1.5,"267 Sixth St_BR_ENCODED_Meeker, CO 81641",81641,40.036964,-107.91362,ladders_open_data_20220610,40.05,-107.89,False
0016100001HA1KZAA1,1.4,"5600 Arapahoe Ave #100_BR_ENCODED_Boulder, CO 80302",80302,40.014519,-105.224342,ladders_open_data_20220610,40.02,-105.25,False
0016100001HA3e7AAD,1.4,"1525 Spruce Street, Unit 100_BR_ENCODED_Boulder, CO 80302",80302,40.019867,-105.276054,ladders_open_data_20220610,40.02,-105.25,False
0016100001HA3jIAAT,1.4,"1101 Village Rd Suite UL6C_BR_ENCODED_Carbondale, CO 81623",81623,39.408363,-107.219093,ladders_open_data_20220610,39.39,-107.21,False
0016100001HA3g1AAD,1.4,"4891 Independence St, Suite165_BR_ENCODED_Wheat Ridge, CO 80033",80033,39.785566,-105.105598,ladders_open_data_20220610,39.77,-105.09,False
0016100001HA3zRAAT,1.4,"35952 HWY 385_BR_ENCODED_Wray, CO 80758",80758,40.089052,-102.227537,ladders_open_data_20220610,40.07,-102.22,False
0016100001HA3qDAAT,1.4,"810 Lincoln Ave Suite 200_BR_ENCODED_Steamboat Springs, CO 80487",80487,40.486279,-106.834755,ladders_open_data_20220610,40.47,-106.82,False
0016100001HA3ruAAD,1.4,"302 3rd Street SE_BR_ENCODED_Loveland, CO 80537",80537,40.390385,-105.073021,ladders_open_data_20220610,40.41,-105.07,False
0016100001HA4S8AAL,1.4,"1644 S College Ave_BR_ENCODED_Fort Collins, CO 80525",80525,40.566269,-105.076767,ladders_open_data_20220610,40.55,-105.06,False
0016100001HA3qEAAT,1.3,"211 W. Main St_BR_ENCODED_Sterling, CO 80751",80751,40.62532,-103.213524,ladders_open_data_20220610,40.62,-103.19,False
0016100001Th0DDAAZ,1.3,"5495 Arapahoe Ave. Suite 100E_BR_ENCODED_Boulder, Colorado 80303",80303,40.014793,-105.225899,ladders_open_data_20220610,40.02,-105.25,False
0016100001HA4QBAA1,1.3,"9595 West 49th Avenue_BR_ENCODED_Wheat Ridge, CO 80033",80033,39.785675,-105.104759,ladders_open_data_20220610,39.77,-105.09,False
0016100001HA4QQAA1,1.3,"4851 Independence St._BR_ENCODED_Wheat Ridge, CO 80033",80033,39.785007,-105.104973,ladders_open_data_20220610,39.77,-105.09,False
0016100001HA4D6AAL,1.3,"4851 Independence Street #100_BR_ENCODED_Wheat Ridge, CO 80033",80033,39.785007,-105.104973,ladders_open_data_20220610,39.77,-105.09,False
0016100001HA3z0AAD,1.3,"436 South 7th Avenue_BR_ENCODED_Grand Junction, CO 81501",81501,39.063599,-108.560974,ladders_open_data_20220610,39.08,-108.55,False
0016100001HA3h8AAD,1.3,"636 South Ave_BR_ENCODED_Grand Junction, Colorado 81501",81501,39.063461,-108.56208,ladders_open_data_20220610,39.08,-108.55,False
0016100001HA3z1AAD,1.3,"650 South Ave_BR_ENCODED_Grand Junction, CO 81501",81501,39.063461,-108.561874,ladders_open_data_20220610,39.08,-108.55,False
0016100001HA3z2AAD,1.3,"559 Pitkin Avenue_BR_ENCODED_Grand Junction, CO 81501",81501,39.064339,-108.56324,ladders_open_data_20220610,39.08,-108.55,False
0016100001HA3pZAAT,1.3,"8745 County Road 9 South_BR_ENCODED_Alamosa, CO 81101",81101,37.444355,-105.883339,ladders_open_data_20220610,37.46,-105.87,False
0016100001HA3hsAAD,1.2,"750 Potomac Street  Suite 101_BR_ENCODED_Aurora, CO 80011",80011,39.692951,-104.831329,ladders_open_data_20220610,39.69,-104.81,False
0016100001HA3jhAAD,1.2,"6303 Wadsworth Bypass_BR_ENCODED_Arvada, CO 80003",80003,39.811203,-105.079941,ladders_open_data_20220610,39.82,-105.1,False
0014M00001kre2SQAQ,1.2,"95 Merchant Drive Unit B1_BR_ENCODED_Montrose, CO 81401",81401,38.489639,-107.891838,ladders_open_data_20220610,38.49,-107.87,False
0016100001HA3xfAAD,1.2,"1225 Ken Pratt Blvd Suite 202_BR_ENCODED_Longmont, CO 80501",80501,40.152264,-105.112488,ladders_open_data_20220610,40.17,-105.11,False
0016100001HA3umAAD,1.2,"2255 South 88th Street_BR_ENCODED_Louisville, CO 80027",80027,39.944248,-105.147118,ladders_open_data_20220610,39.96,-105.14,False
0016100001HA4DgAAL,1.2,"3180 Airport Road_BR_ENCODED_Boulder, CO 80304",80304,40.032269,-105.234467,ladders_open_data_20220610,40.02,-105.25,False
0016100001HA43KAAT,1.1,"11027 S. Pikes Peak Dr._BR_ENCODED_Parker, CO 80138",80138,39.516422,-104.762314,ladders_open_data_20220610,39.5,-104.76,False
0016100001HA3hqAAD,1.1,"61 W. Davies Ave. N._BR_ENCODED_Littleton, CO 80120",80120,39.589447,-104.988983,ladders_open_data_20220610,39.59,-105.01,False
0016100001HA3ygAAD,1.1,"7585 West 66th Avenue Building C_BR_ENCODED_Arvada, CO 80003",80003,39.816547,-105.080215,ladders_open_data_20220610,39.82,-105.1,False
0016100001RiB1tAAF,1.1,"2525 16th Street, suite D_BR_ENCODED_Greeley, CO 80634",80634,40.414791,-104.721008,ladders_open_data_20220610,40.42,-104.74,False
0016100001WvONcAAN,1.1,"602 Yale Place_BR_ENCODED_Canon City, CO 81212",81212,38.45583,-105.232323,ladders_open_data_20220610,38.44,-105.23,False
0016100001HA3eXAAT,1.1,"750 W. Hampden Ave, 425_BR_ENCODED_Englewood, CO 80110",80110,39.65466,-104.996518,ladders_open_data_20220610,39.64,-104.99,False
0016100001HA3gcAAD,1.0,"1136 E Stuart Street, Suite 2060_BR_ENCODED_Fort Collins, CO 80525",80525,40.563492,-105.056511,ladders_open_data_20220610,40.55,-105.06,False
0016100001HA3hCAAT,1.0,"1170 Colorado Avenue_BR_ENCODED_Grand Junction, CO 81501",81501,39.066349,-108.552979,ladders_open_data_20220610,39.08,-108.55,False
0016100001HA4QEAA1,1.0,"7495 West 29th Ave_BR_ENCODED_Wheat Ridge, CO 80033",80033,39.758514,-105.079681,ladders_open_data_20220610,39.77,-105.09,False
0016100001HA4RxAAL,1.0,"1970 E 3rd Avenue, Lower Level_BR_ENCODED_Durango, CO 81301",81301,37.28405,-107.874405,ladders_open_data_20220610,37.27,-107.88,False
0016100001HA3rwAAD,1.0,"3161 County Road 62E_BR_ENCODED_Wellington, CO 80549",80549,40.696655,-105.017899,ladders_open_data_20220610,40.7,-105,False
0016100001HA3l4AAD,1.0,"209 4th Street - Unit A_BR_ENCODED_Dacono, CO 80514",80514,40.084072,-104.939636,ladders_open_data_20220610,40.07,-104.94,False
0016100001Oy4HpAAJ,1.0,"216 N 3rd St_BR_ENCODED_Sterling, Co 80751",80751,40.625717,-103.20694,ladders_open_data_20220610,40.62,-103.19,False
0016100001HA3yYAAT,1.0,"404 N. Main St._BR_ENCODED_Rocky Ford, CO 81067",81067,38.054401,-103.718712,ladders_open_data_20220610,38.04,-103.72,False
0016100001HA3zqAAD,1.0,"405 Castle Creek Road_BR_ENCODED_Aspen, CO 81611",81611,39.189995,-106.837814,ladders_open_data_20220610,39.19,-106.82,False
0016100001HA3yfAAD,1.0,"318 Lacey Ave_BR_ENCODED_La Junta, CO 81050",81050,37.984951,-103.523293,ladders_open_data_20220610,37.98,-103.54,False
0016100001HA3h5AAD,0.9,"0405 Castle Creek Rd_BR_ENCODED_Aspen, CO 81611",81611,39.18988,-106.83773,ladders_open_data_20220610,39.19,-106.82,False
0016100001HA3z3AAD,0.9,"219 East Railroad Ave_BR_ENCODED_Fort Morgan, CO 80701",80701,40.248569,-103.799232,ladders_open_data_20220610,40.26,-103.79,False
0014M00001hI9ATQA0,0.9,"800 East Maple Street_BR_ENCODED_Lamar, CO 81052",81052,38.092567,-102.610764,ladders_open_data_20220610,38.08,-102.61,False
0016100001HA3nuAAD,0.9,"0161 W. Beaver Creek Rd # 116_BR_ENCODED_Avon, CO 81620",81620,39.636978,-106.524673,ladders_open_data_20220610,39.65,-106.53,False
0016100001HA3n9AAD,0.9,"17301 W Colfax Ave Ste 275_BR_ENCODED_Golden, CO 80401",80401,39.722538,-105.195374,ladders_open_data_20220610,39.73,-105.21,False
0016100001HA3yqAAD,0.9,"4801 Riverbend Road_BR_ENCODED_Boulder, CO 80303",80303,40.016094,-105.23468,ladders_open_data_20220610,40.02,-105.25,False
0016100001HA3lBAAT,0.9,"2619 West 11th St. Rd,, Ste 17_BR_ENCODED_Greeley, CO 80634",80634,40.420837,-104.72345,ladders_open_data_20220610,40.42,-104.74,False
0016100001HA3tsAAD,0.9,"24 9th Ave., Unit B_BR_ENCODED_Longmont, CO 80501",80501,40.173988,-105.093407,ladders_open_data_20220610,40.17,-105.11,False
0016100001HA3hKAAT,0.9,"3000 S. College Avenue #202_BR_ENCODED_Fort Collins, CO 80525",80525,40.547203,-105.076874,ladders_open_data_20220610,40.55,-105.06,False
0016100001HA3sIAAT,0.9,"460 North 3rd West_BR_ENCODED_Cheyenne Wells, CO 80810",80810,38.822681,-102.353851,ladders_open_data_20220610,38.81,-102.35,False
0016100001HA4QSAA1,0.9,"4643 Wadsworth Blvd_BR_ENCODED_Wheat Ridge, CO 80033",80033,39.780788,-105.081512,ladders_open_data_20220610,39.77,-105.09,False
0016100001HA3jeAAD,0.9,"2901 Ford St_BR_ENCODED_Golden, CO 80401",80401,39.743484,-105.207024,ladders_open_data_20220610,39.73,-105.21,False
0016100001HA4SAAA1,0.9,"0405 Castle Creek Rd, Suite 207_BR_ENCODED_Aspen, CO 81611",81611,39.18988,-106.83773,ladders_open_data_20220610,39.19,-106.82,False
0016100001HA3ipAAD,0.9,"402 Fourth Ave_BR_ENCODED_Monte Vista, CO 81144",81144,37.576557,-106.153336,ladders_open_data_20220610,37.57,-106.14,False
0016100001HA40MAAT,0.9,"518 28 Rd, Bldg B- 209_BR_ENCODED_Grand Junction, CO 81501",81501,39.079811,-108.533585,ladders_open_data_20220610,39.08,-108.55,False
0016100001KguXOAAZ,0.8,"2017 Lava Lane_BR_ENCODED_Alamosa, CO 81101",81101,37.448544,-105.865761,ladders_open_data_20220610,37.46,-105.87,False
0016100001HA3mEAAT,0.8,"831 S Perry Street, Suite 100_BR_ENCODED_Castle Rock, CO 80104",80104,39.36237,-104.862061,ladders_open_data_20220610,39.37,-104.85,False
0016100001LYyvOAAT,0.8,"6509 S. Santa Fe Dr._BR_ENCODED_Littleton, CO 80120",80120,39.598663,-105.020981,ladders_open_data_20220610,39.59,-105.01,False
0016100001HA3hBAAT,0.8,"456 Kokopelli Blvd._BR_ENCODED_Fruita, CO 81521",81521,39.152824,-108.734886,ladders_open_data_20220610,39.15,-108.72,False
0016100001HA40bAAD,0.8,"1131 N 21st St_BR_ENCODED_Grand Junction, CO 81501",81501,39.077969,-108.53598,ladders_open_data_20220610,39.08,-108.55,False
0016100001HA3sJAAT,0.8,"80 E 1st - Suite 2_BR_ENCODED_Cheyenne Wells, CO 80810",80810,38.821396,-102.348595,ladders_open_data_20220610,38.81,-102.35,False
0016100001HA2tSAAT,0.8,"1291 Circle Drive_BR_ENCODED_Burlington, CO 80807",80807,39.311432,-102.266869,ladders_open_data_20220610,39.3,-102.27,False
0016100001HA2tRAAT,0.8,"821 E Railroad Ave_BR_ENCODED_Fort Morgan, CO 80701",80701,40.248577,-103.788177,ladders_open_data_20220610,40.26,-103.79,False
0016100001HA42zAAD,0.8,"350 E. 7th Street #13_BR_ENCODED_Loveland, CO 80537",80537,40.398518,-105.072495,ladders_open_data_20220610,40.41,-105.07,False
0016100001HA4QsAAL,0.8,"417 S. Indiana Ave_BR_ENCODED_Trinidad, CO 81082",81082,37.16917,-104.491005,ladders_open_data_20220610,37.16,-104.5,False
0016100001HA3jGAAT,0.8,"725 Main Street_BR_ENCODED_Carbondale, CO 81623",81623,39.4006,-107.214546,ladders_open_data_20220610,39.39,-107.21,False
0016100001HA3ehAAD,0.8,"734 Main St_BR_ENCODED_Carbondale, CO 81623",81623,39.40049,-107.2146,ladders_open_data_20220610,39.39,-107.21,False
0016100001HA3jHAAT,0.8,"811 Main Court_BR_ENCODED_Carbondale, CO 81623",81623,39.400616,-107.215698,ladders_open_data_20220610,39.39,-107.21,False
0016100001HA41HAAT,0.8,"710 N Taylor_BR_ENCODED_Gunnison, CO 81230",81230,38.551144,-106.924248,ladders_open_data_20220610,38.54,-106.92,False
0016100001HA3oQAAT,0.8,"100 Kendall Drive_BR_ENCODED_Lamar, CO 81052",81052,38.068222,-102.611824,ladders_open_data_20220610,38.08,-102.61,False
0016100001HA3y8AAD,0.8,"711 Barnes Ave_BR_ENCODED_La Junta, CO 81050",81050,37.981327,-103.554337,ladders_open_data_20220610,37.98,-103.54,False
0016100001LZOxRAAX,0.8,"721 Barnes Ave_BR_ENCODED_La Junta, CO 81050",81050,37.980484,-103.554352,ladders_open_data_20220610,37.98,-103.54,False
0016100001HA3vzAAD,0.8,"221 E. 29th., Suite 101_BR_ENCODED_Loveland, CO 80538",80538,40.421806,-105.074142,ladders_open_data_20220610,40.41,-105.07,False
0016100001Pzc89AAB,0.8,"300 N.Cascade Street_BR_ENCODED_Montrose, Colorado 81401",81401,38.481873,-107.879234,ladders_open_data_20220610,38.49,-107.87,False
0016100001HA3k2AAD,0.8,Please contact this provider directly for location,80110,39.629028,-104.990372,ladders_open_data_20220610,39.64,-104.99,False
0016100001HA3kgAAD,0.8,"118 N Cascade_BR_ENCODED_Montrose, CO 81401",81401,38.480698,-107.877914,ladders_open_data_20220610,38.49,-107.87,False
0016100001ZcwwAAAR,0.7,"501 North Park Avenue_BR_ENCODED_Breckenridge, CO 80424",80424,39.490978,-106.045959,ladders_open_data_20220610,39.5,-106.04,False
0016100001HA3fVAAT,0.7,"365 West 2nd Street_BR_ENCODED_Wray, CO 80758",80758,40.079716,-102.225883,ladders_open_data_20220610,40.07,-102.22,False
0016100001HA3tiAAD,0.7,"111 3rd Street, Suite 216_BR_ENCODED_Rifle, CO 81650",81650,39.531525,-107.783493,ladders_open_data_20220610,39.53,-107.77,False
0014M00001k8jyHQAQ,0.7,"909 Court Street_BR_ENCODED_Pueblo, CO 81003",81003,38.275524,-104.610252,ladders_open_data_20220610,38.27,-104.62,False
0016100001HA4DfAAL,0.7,"1012 West Abriendo Avenue_BR_ENCODED_Pueblo, CO 81004",81004,38.268433,-104.63282,ladders_open_data_20220610,38.27,-104.62,False
0016100001HA40lAAD,0.7,"315 State Avenue - #101_BR_ENCODED_Alamosa, CO 81101",81101,37.469913,-105.865517,ladders_open_data_20220610,37.46,-105.87,False
0016100001VJQyuAAH,0.7,"5250 Pikes Peak HWY_BR_ENCODED_Cascade, CO 80809",80809,38.907188,-104.97998,ladders_open_data_20220610,38.9,-104.97,False
0016100001HA3ibAAD,0.7,"9th and Dahlia_BR_ENCODED_Antonito, CO 81120",81120,37.079987,-106.01516,ladders_open_data_20220610,37.07,-106.01,False
0016100001HA3gHAAT,0.7,"517 Big Thompson Ave, Suite 120_BR_ENCODED_Estes Park, CO 80517",80517,40.378914,-105.515549,ladders_open_data_20220610,40.37,-105.52,False
0016100001HA4BKAA1,0.7,"35 North Ash St_BR_ENCODED_Cortez, CO 81321",81321,37.349041,-108.582565,ladders_open_data_20220610,37.35,-108.57,False
0016100001HA3ntAAD,0.6,"201 West 6 St_BR_ENCODED_Leadville, CO 80461",80461,39.248177,-106.294167,ladders_open_data_20220610,39.24,-106.29,False
0016100001HA3nrAAD,0.6,"19 Vail Road_BR_ENCODED_Vail, CO 81657",81657,39.641918,-106.378311,ladders_open_data_20220610,39.64,-106.39,False
0016100001HA40nAAD,0.6,"811 Main Street_BR_ENCODED_Alamosa, CO 81101",81101,37.468212,-105.86898,ladders_open_data_20220610,37.46,-105.87,False
0016100001HA3fWAAT,0.6,"118 W 3rd St_BR_ENCODED_Julesburg, CO 80737",80737,40.9879,-102.264633,ladders_open_data_20220610,40.98,-102.26,False
0016100001HA40cAAD,0.6,"1035 Kimbark Street_BR_ENCODED_Longmont, CO 80501",80501,40.176464,-105.10128,ladders_open_data_20220610,40.17,-105.11,False
0016100001HA4BiAAL,0.6,"244 East Agate Ave._BR_ENCODED_Granby, CO 80446",80446,40.085243,-105.938324,ladders_open_data_20220610,40.08,-105.93,False
0016100001HA4S9AAL,0.6,"1906 Blake Ave_BR_ENCODED_Glenwood Springs, CO 81601",81601,39.532784,-107.322723,ladders_open_data_20220610,39.54,-107.33,False
0016100001HA41QAAT,0.5,"400 Midland, # 155_BR_ENCODED_Woodland Park, CO 80863",80863,38.99411,-105.05751,ladders_open_data_20220610,38.99,-105.05,False
0016100001HA2tTAAT,0.5,"871 E 1st Street_BR_ENCODED_Akron, CO 80720",80720,40.159275,-103.201103,ladders_open_data_20220610,40.16,-103.21,False
0016100001HA3tpAAD,0.5,"818 Colorado Avenue - LL 105_BR_ENCODED_Glenwood Springs, CO 81601",81601,39.546284,-107.325469,ladders_open_data_20220610,39.54,-107.33,False
0016100001HA3uCAAT,0.5,"691 E Empire Street_BR_ENCODED_Cortez, CO 81321",81321,37.356113,-108.57579,ladders_open_data_20220610,37.35,-108.57,False
0016100001HA3hEAAT,0.5,"1601 25th Avenue_BR_ENCODED_Greeley, CO 80634",80634,40.414642,-104.734253,ladders_open_data_20220610,40.42,-104.74,False
0016100001HA3xYAAT,0.5,"595 14th st_BR_ENCODED_Burlington, CO 80807",80807,39.306675,-102.268036,ladders_open_data_20220610,39.3,-102.27,False
0016100001HA4QTAA1,0.5,"405 Argentine Street_BR_ENCODED_Georgetown, CO 80444",80444,39.705681,-105.698196,ladders_open_data_20220610,39.71,-105.69,False
0016100001HA3ksAAD,0.5,"107 West 11th Street_BR_ENCODED_Delta, CO 81416",81416,38.73259,-108.071495,ladders_open_data_20220610,38.74,-108.07,False
0016100001HA4DOAA1,0.5,"439 Breeze, Unit 200_BR_ENCODED_Craig, CO 81625",81625,40.51313,-107.548393,ladders_open_data_20220610,40.52,-107.55,False
0016100001HA4RpAAL,0.5,"137 Howard St_BR_ENCODED_Eagle, CO 81631",81631,39.655582,-106.825569,ladders_open_data_20220610,39.65,-106.82,False
0016100001HA3yXAAT,0.5,"138 6th Street_BR_ENCODED_Las Animas, CO 81054",81054,38.066418,-103.21785,ladders_open_data_20220610,38.06,-103.22,False
0016100001HA3oRAAT,0.5,"189 E. 9th Avenue_BR_ENCODED_Springfield, CO 81073",81073,37.405052,-102.61544,ladders_open_data_20220610,37.4,-102.61,False
0016100001HA3thAAD,0.5,"1315 Main Avenue, Suite 212_BR_ENCODED_Durango, CO 81301",81301,37.277889,-107.879265,ladders_open_data_20220610,37.27,-107.88,False
0016100001HA3gwAAD,0.5,"620 Kimbark St_BR_ENCODED_Longmont, Colorado 80501",80501,40.169403,-105.101112,ladders_open_data_20220610,40.17,-105.11,False
0016100001HA3jfAAD,0.5,"11030 Kitty Drive_BR_ENCODED_Conifer, CO 80433",80433,39.5173,-105.308083,ladders_open_data_20220610,39.52,-105.3,False
0016100001HA3bsAAD,0.5,"123 W. Tomichi Avenue #8_BR_ENCODED_Gunnison, CO 81230",81230,38.544346,-106.927773,ladders_open_data_20220610,38.54,-106.92,False
0016100001HA3zsAAD,0.5,"2121 North Avenue_BR_ENCODED_Grand Junction, CO 81501",81501,39.077271,-108.54081,ladders_open_data_20220610,39.08,-108.55,False
0016100001HA3jbAAD,0.5,"458 Ranney St_BR_ENCODED_Craig, CO 81625",81625,40.513626,-107.553146,ladders_open_data_20220610,40.52,-107.55,False
0016100001HA3ivAAD,0.4,"520 S. 3rd Street - Room 31_BR_ENCODED_Carbondale, CO 81623",81623,39.395874,-107.209885,ladders_open_data_20220610,39.39,-107.21,False
0016100001HA3wPAAT,0.4,"245 E Rainbow Blvd (Hwy 50) Suite 7_BR_ENCODED_Salida, CO 81201",81201,38.524067,-106.000732,ladders_open_data_20220610,38.53,-106,False
0016100001HA3fUAAT,0.4,"215 S Ash St._BR_ENCODED_Yuma, CO 80759",80759,40.124119,-102.725113,ladders_open_data_20220610,40.12,-102.72,False
0016100001HA3wsAAD,0.4,"115 N Campbell_BR_ENCODED_Holyoke, CO 80734",80734,40.586105,-102.300766,ladders_open_data_20220610,40.58,-102.3,False
0016100001HA3qoAAD,0.4,"650 E Walnut St._BR_ENCODED_Elizabeth, CO 80107",80107,39.357056,-104.594482,ladders_open_data_20220610,39.36,-104.6,False
0016100001HA3trAAD,0.4,"0069 Access Rd  Suite 11-3_BR_ENCODED_Edwards, CO 81632",81632,39.645968,-106.593516,ladders_open_data_20220610,39.65,-106.6,False
0016100001HA3yTAAT,0.4,"115 Grand Ave_BR_ENCODED_Delta, CO 81416",81416,38.745327,-108.068146,ladders_open_data_20220610,38.74,-108.07,False
0016100001HA3hRAAT,0.4,"1025 Main Street_BR_ENCODED_Delta, CO 81416",81416,38.733528,-108.070831,ladders_open_data_20220610,38.74,-108.07,False
0016100001HA4R3AAL,0.4,"926 Russell_BR_ENCODED_Walsenburg, CO 81089",81089,37.621082,-104.777596,ladders_open_data_20220610,37.62,-104.77,False
0016100001HA4DhAAL,0.4,"529 Coffman, Suite 300_BR_ENCODED_Longmont, CO 80501",80501,40.167889,-105.103897,ladders_open_data_20220610,40.17,-105.11,False
0016100001HA4RtAAL,0.4,"395 E Lionshead Cir_BR_ENCODED_Vail, CO 81657",81657,39.644173,-106.3853,ladders_open_data_20220610,39.64,-106.39,False
0016100001HA3lNAAT,0.3,"606 Main Street_BR_ENCODED_Limon, CO 80828",80828,39.263073,-103.684006,ladders_open_data_20220610,39.26,-103.68,False
0016100001HA3tgAAD,0.3,"649 East College Drive_BR_ENCODED_Durango, CO 81301",81301,37.268616,-107.874252,ladders_open_data_20220610,37.27,-107.88,False
0016100001MlAFRAA3,0.3,"1455 Dixon Avenue_BR_ENCODED_Lafayette, COLORADO 80026",80026,39.985767,-105.092834,ladders_open_data_20220610,39.99,-105.09,False
0016100001HA41IAAT,0.3,"1605 Grand Ave Suite #3_BR_ENCODED_Norwood, CO 81423",81423,38.130806,-108.296074,ladders_open_data_20220610,38.13,-108.29,False
0016100001HA3imAAD,0.3,"260 Worth Street_BR_ENCODED_Center, CO 81125",81125,37.753841,-106.108421,ladders_open_data_20220610,37.75,-106.11,False
0016100001HA41MAAT,0.3,"3400 Lutheran Parkway_BR_ENCODED_Wheat Ridge, CO 80033",80033,39.765484,-105.088646,ladders_open_data_20220610,39.77,-105.09,False
0016100001HA3qbAAD,0.2,"319 14th Street_BR_ENCODED_Glenwood Springs, CO 81602",81602,39.539238,-107.325584,ladders_open_data_20220610,39.54,-107.33,False
0016100001HA3hTAAT,0.2,"211 W 4th Street_BR_ENCODED_Delta, CO 81416",81416,38.741714,-108.07254,ladders_open_data_20220610,38.74,-108.07,False
0016100001HA42sAAD,0.2,"1300 Plaza Ct North Unit- 102_BR_ENCODED_Lafayette, CO 80026",80026,39.986718,-105.090127,ladders_open_data_20220610,39.99,-105.09,False
0016100001HA42yAAD,0.2,"142 6 St., #2_BR_ENCODED_Frederick, CO 80530",80530,40.097698,-104.940346,ladders_open_data_20220610,40.1,-104.94,False
0016100001R2Hh5AAF,0.2,"1790 30th St., #305_BR_ENCODED_Boulder, CO 80303",80303,40.017677,-105.253532,ladders_open_data_20220610,40.02,-105.25,False
0016100001HA3inAAD,0.2,"409 Trinchera Street_BR_ENCODED_San Luis, CO 81152",81152,37.198875,-105.423409,ladders_open_data_20220610,37.2,-105.42,False
0016100001HA3brAAD,0.1,"601 Elk Avenue_BR_ENCODED_Crested Butte, CO 81224",81224,38.869781,-106.981331,ladders_open_data_20220610,38.87,-106.98,False
0014M00001gPelDQAS,0.1,"214 6th Street, Unit 4_BR_ENCODED_Crested Butte, Colorado 81224",81224,38.871399,-106.980858,ladders_open_data_20220610,38.87,-106.98,False
0016100001LaIaMAAV,0.1,"112 Village Square West Suite 201_BR_ENCODED_Ridgway, Colorado 81432",81432,38.151459,-107.750916,ladders_open_data_20220610,38.15,-107.75,False
